#dP2018 12 10  0  0  0.00000000      96 __u+U IGS08 FIT  IAC
## 2031  86400.00000000   900.00000000 58462 0.0000000000000
+   95   C01C02C03C04C05C06C07C08C09C10C11C12C13C14E01E02E03
+        E04E05E07E08E09E11E12E14E15E18E19E21E24E25E26E27E30
+        E31E33E36G01G02G03G04G05G06G07G08G09G10G11G12G13G14
+        G15G16G17G18G19G20G21G22G23G24G25G26G27G28G29G30G31
+        G32J01J02J03R01R02R03R04R05R07R08R09R10R11R13R14R15
+        R16R17R18R19R20R21R22R23R24R26  0  0  0  0  0  0  0
++        12 12  0 12 12  8  8  8  8  8  7  7  8  9  6  6  5
++         6  5  6  5  6  6  6  5  7  6  5  5  6  5  6  5  5
++         5  5  7  3  3  3  6  3  3  6  3  3  3  3  3  3  3
++         3  3  3  6  3  6  3  3  3  3  6  3  3  3  3  3  3
++         6  9 11 11  5  5  5  5  5  5  5  5  5  5  5  5  5
++         5  5  5  5  5  5  5  5  8  8  0  0  0  0  0  0  0
%c M  cc GPS ccc cccc cccc cccc cccc ccccc ccccc ccccc ccccc
%c cc cc ccc ccc cccc cccc cccc cccc ccccc ccccc ccccc ccccc
%f  1.2500000  1.025000000  0.00000000000  0.000000000000000
%f  0.0000000  0.000000000  0.00000000000  0.000000000000000
%i    0    0    0    0      0      0      0      0         0
%i    0    0    0    0      0      0      0      0         0
/* INFORMATION & ANALYSIS CENTER (IAC)            FINAL DATA
/* S/V CLOCKS ARE ALIGNED TO GPS & GLONASS TIME RESPECTIVELY
/* USING THE BROADCAST EPHEMERIS                            
/* PCV:IGS14_2029 OL/AL:FES2004  NONE     YN ORB:CoN CLK:CoN
*  2018 12 10  5 45  0.00000000
PC01 -32335.815838  27051.245897  -1030.903061     -8.358731
PC02   4412.853045  41905.277939    237.784456   -160.066210
PC03 -14616.301209  39563.859553   -551.699864 999999.999999
PC04 -39639.252141  14370.742492   -611.140568   -258.938351
PC05  21926.948994  36018.962299    496.010970     56.086075
PC06 -13685.909584  21030.406174  34140.663915    136.532486
PC07 -24893.648571  32386.837131 -11227.757527   -176.089421
PC08  -7974.166921  35617.023583 -20797.309177     57.642343
PC09   3988.183617  27378.400707  32079.190472    353.644676
PC10 -10175.529163  33152.316337 -24078.266862   -308.660026
PC11 -14443.175704 -23353.598631   5246.326215    -80.699135
PC12   8678.393402 -13382.854896  22975.322255    265.510497
PC13    472.772805  41137.633558  -8496.109256   -420.942540
PC14   1102.330299 -16314.629402 -22567.304359    423.311005
PE01 -11133.645743  24469.783598 -12380.488339   -495.813756
PE02  11094.559852 -24475.334514  12429.351580     38.521264
PE03   3329.337165 -16846.572335 -24115.747521   -109.067826
PE04  18022.922664  16242.417985  16954.206336   -175.889187
PE05  22879.242554  -7578.065754 -17188.868608    145.141255
PE07 -28970.475576  -6093.181793    226.310784    -90.871024
PE08 -18248.678929 -15969.378042 -16986.732088   6446.428961
PE09  29010.086445   5839.018474   -225.346297   6592.964959
PE11  18187.841664   9335.170223  21409.559281   5715.089973
PE12  12954.074516  25907.977426   6125.425834   5683.378667
PE14   9467.391522  24648.927601 -16775.783221   6477.139629
PE15 -13262.569151 -25653.205868  -6500.382394    577.536445
PE18 -17789.584511 -18214.267777   3871.443768   5693.737390
PE19  -5543.830597  16186.214373  24149.889951    -10.013831
PE21 -22331.434406  18195.221068   6820.726142   -508.632601
PE24  20467.589253  -1626.075067 -21333.127082   6346.402184
PE25  22331.863559 -18182.441098  -6834.717047   1958.621528
PE26 -12805.323477  12189.211139 -23731.182909   5152.901541
PE27 -20143.907218   1164.971590  21665.615599    573.440867
PE30  -6564.362453 -16195.388127  23891.239709   5282.183422
PE31   6143.698230  16515.213543 -23772.361911    962.438636
PE33    597.832392  26951.670715 -12210.801368    495.125772
PE36  12462.006660 -12420.275316  23812.481269    425.659074
PG01  13202.960738 -14164.187851  17871.197869   -126.636977
PG02 -13979.268804  -9878.952896 -19776.342070    -81.635152
PG03  22626.970381 -13497.799679  -3087.176038    168.246648
PG04  23048.682666  13713.802262  -1801.913340    -91.028137
PG05 -22203.522894   -424.587581 -14836.010967      0.302904
PG06  -7347.935483 -22016.877384 -12860.617628    319.054722
PG07   6281.282347 -24789.775246  -5970.642009     73.297052
PG08  22322.392072   2852.857469  14293.592963   -125.067662
PG09   5065.391690 -14909.240319 -21436.358483    484.663561
PG10   2170.286521  15588.974703  21412.640749    153.641676
PG11  13532.168813  -9192.927030  20405.506939   -690.418642
PG12 -24423.644748  10183.719851   -149.986778    285.678710
PG13 -22354.810870 -11131.570254   8970.996967    -82.039008
PG14  17668.747350  19170.742114   5846.265765    -94.828053
PG15 -21422.301974   1599.298255  15613.253806   -336.819327
PG16  21746.301798   2546.260578 -15498.237081     -5.780917
PG17 -10560.045863 -19955.078159  14486.803566    -20.625928
PG18  15068.635828  -3687.959920  21067.290577      3.885440
PG19 -17766.450784 -18946.783031   4961.364983   -375.399551
PG20  -7256.729508  19337.558956  16508.836289    519.761059
PG21  -2049.781394  26326.972327  -2377.717332   -289.979556
PG22  24267.706473  -9590.434948   5067.756904   -594.955832
PG23  15000.719389  -7814.910065 -20263.315518   -203.959505
PG24 -14716.720576   9140.895283  19911.998479    -59.331301
PG25 -18119.284740  16500.312270 -10105.814960   -689.037384
PG26  14357.242040   8951.855764 -20517.967814     63.423490
PG27  23555.519760  11341.458709   5375.067656    -30.068395
PG28   1144.377199 -15993.107533  21814.582872    757.930620
PG29  -8091.445929  12297.065832 -22126.534533    318.649775
PG30   -680.768073 -25988.682810   4991.722200    -17.477608
PG31   8686.155532  19785.315264 -15127.971096     73.892799
PG32  13304.568075  19360.827519  12527.773642   -324.718954
PJ01 -29141.613243  27800.663810  17615.228667   -246.447671
PJ02 -30997.449176  26693.744703  14930.316906     -0.840971
PJ03 -23619.329617  18816.933668 -24752.491760      1.803877
PR01  22963.813473   4828.815754   9976.783761     36.213902
PR02  23045.867432  -4370.224213 -10056.955838    343.645618
PR03   8571.887020 -10245.901508 -21708.357994    151.207194
PR04 -11403.704523  -9951.477651 -20519.596532    286.859770
PR05 -23900.263268  -4026.767892  -7916.072918     17.339735
PR07  -7985.635880  10346.524941  21923.504406    -53.394790
PR08  10657.848194  10137.204788  20884.833989     20.073470
PR09 -16249.164324  15869.680652  11691.705006     42.971446
PR10 -11440.604741  22432.066623  -4337.258793     37.352778
PR11    739.346217  16667.146732 -19293.165060    -49.677703
PR13  15919.558011 -15440.570815 -12614.286718    -17.757067
PR14  11219.501693 -22497.720904   4305.754541     33.826483
PR15    -45.002303 -17133.380548  18924.730069     98.825400
PR16 -11366.303278  -2061.410230  22714.315299    108.415570
PR17   -215.363433 -17831.643198  18270.828984    186.691377
PR18 -10673.611810 -22856.101740   3617.384294     27.969908
PR19 -14997.261772 -15846.377120 -13217.746831    -62.065869
PR20 -10598.545789   2125.631126 -23090.411277   -361.851532
PR21    593.634953  18072.627462 -17971.718976    -19.062950
PR22  11766.391251  22675.955284  -1129.407333    -64.538461
PR23  15109.826091  11819.277889  16807.400237    195.878938
PR24   9926.148451  -3684.798283  23186.776295   -174.731564
PR26 -11477.406114    468.518444 -22763.486665      9.158805
EOF
